NORAD_CAT_ID,OBJECT_NAME,OBJECT_TYPE,EPOCH,MEAN_MOTION,ECCENTRICITY,INCLINATION,RA_OF_ASC_NODE,ARG_OF_PERICENTER,MEAN_ANOMALY,BSTAR,MEAN_MOTION_DOT,MEAN_MOTION_DDOT,TLE_LINE0,TLE_LINE1,TLE_LINE2,SEMIMAJOR_AXIS,PERIOD,APOGEE,PERIGEE,DECAYED
52617.0,STARLINK-3996,PAYLOAD,2022-10-10 05:44:41,15.0884258,0.0001435,53.2151,104.645,57.9846,302.1286,-9.6879e-06,-4.42e-06,0.0,0 STARLINK-3996,1 52617U 22052V   22283.23936761 -.00000442  00000-0 -96879-5 0  9992,2 52617  53.2151 104.6450 0001435  57.9846 302.1286 15.08842580 23190,6917.873000000001,95.437,540.73,538.745,0.0
52617.0,STARLINK-3996,PAYLOAD,2022-10-10 12:06:13,15.08842202,0.0001505,53.2155,103.4545,59.7289,300.3852,-8.570700000000001e-05,-1.652e-05,0.0,0 STARLINK-3996,1 52617U 22052V   22283.50432866 -.00001652  00000-0 -85707-4 0  9990,2 52617  53.2155 103.4545 0001505  59.7289 300.3852 15.08842202 22857,6917.874,95.437,540.78,538.698,0.0
52617.0,STARLINK-3996,PAYLOAD,2022-10-10 18:27:46,15.08845122,0.0001449,53.2147,102.2648,61.9896,298.1242,7.0436e-05,8.33e-06,0.0,0 STARLINK-3996,1 52617U 22052V   22283.76928654  .00000833  00000-0  70436-4 0  9994,2 52617  53.2147 102.2648 0001449  61.9896 298.1242 15.08845122 22890,6917.865,95.437,540.732,538.727,0.0
52617.0,STARLINK-3996,PAYLOAD,2022-10-11 11:57:02,15.08828294,0.0001530999999999,53.2162,98.9947,54.2063,305.9071,-7.421600000000001e-05,-1.469e-05,0.0,0 STARLINK-3996,1 52617U 22052V   22284.49794060 -.00001469  00000-0 -74216-4 0  9995,2 52617  53.2162  98.9947 0001531  54.2063 305.9071 15.08828294 23386,6917.916,95.438,540.84,538.722,0.0
52617.0,STARLINK-3996,PAYLOAD,2022-10-11 15:07:47,15.08829228,0.0001557,53.215,98.3994,57.7038,302.4105,-0.00016864,-2.97e-05,0.0,0 STARLINK-3996,1 52617U 22052V   22284.63041577 -.00002970  00000-0 -16864-3 0  9991,2 52617  53.2150  98.3994 0001557  57.7038 302.4105 15.08829228 23026,6917.913000000001,95.438,540.855,538.701,0.0
52617.0,STARLINK-3996,PAYLOAD,2022-10-12 11:47:48,15.08836244,0.0001527,53.2158,94.5339,58.4209,301.6932,9.3812e-05,1.205e-05,0.0,0 STARLINK-3996,1 52617U 22052V   22285.49153590  .00001205  00000-0  93812-4 0  9992,2 52617  53.2158  94.5339 0001527  58.4209 301.6932 15.08836244 23159,6917.892,95.438,540.813,538.701,0.0
52617.0,STARLINK-3996,PAYLOAD,2022-10-12 18:09:21,15.08841791,0.0001581,53.2151,93.3439,57.4321,302.6824,0.00018457,2.651e-05,0.0,0 STARLINK-3996,1 52617U 22052V   22285.75649455  .00002651  00000-0  18457-3 0  9998,2 52617  53.2151  93.3439 0001581  57.4321 302.6824 15.08841791 23574,6917.875,95.437,540.8340000000002,538.646,0.0
52617.0,STARLINK-3996,PAYLOAD,2022-10-13 11:38:37,15.08814727,0.0001238,53.2154,90.0728,58.5558,301.5555,0.0010482999999999,0.00016424,0.0,0 STARLINK-3996,1 52617U 22052V   22286.48515203  .00016424  00000-0  10483-2 0  9995,2 52617  53.2154  90.0728 0001238  58.5558 301.5555 15.08814727 23304,6917.958000000001,95.439,540.679,538.966,0.0
52617.0,STARLINK-3996,PAYLOAD,2022-10-13 18:00:08,15.088444400000002,0.0001588,53.2154,88.8829,55.543,304.5712,0.00036639,5.549e-05,0.0,0 STARLINK-3996,1 52617U 22052V   22286.75009592  .00005549  00000-0  36639-3 0  9992,2 52617  53.2154  88.8829 0001588  55.5430 304.5712 15.08844440 23724,6917.8669999999975,95.437,540.83,538.633,0.0
52617.0,STARLINK-3996,PAYLOAD,2022-10-14 11:29:22,15.08854152,0.0001602,53.2164,85.6116,47.8182,312.2946,0.00021784,3.182e-05,0.0,0 STARLINK-3996,1 52617U 22052V   22287.47872764  .00003182  00000-0  21784-3 0  9997,2 52617  53.2164  85.6116 0001602  47.8182 312.2946 15.08854152 23450,6917.837,95.437,540.81,538.594,0.0
52617.0,STARLINK-3996,PAYLOAD,2022-10-14 17:50:54,15.08852151,0.0001612,53.2161,84.4223,48.7035,311.4096,0.00014501,2.021e-05,0.0,0 STARLINK-3996,1 52617U 22052V   22287.74368609  .00002021  00000-0  14501-3 0  9995,2 52617  53.2161  84.4223 0001612  48.7035 311.4096 15.08852151 23499,6917.843000000003,95.437,540.823,538.5930000000002,0.0
52617.0,STARLINK-3996,PAYLOAD,2022-10-15 11:20:09,15.08829861,0.0001597,53.2164,81.152,53.7138,306.4002,-0.00018588,-3.244e-05,0.0,0 STARLINK-3996,1 52617U 22052V   22288.47233523 -.00003244  00000-0 -18588-3 0  9991,2 52617  53.2164  81.1520 0001597  53.7138 306.4002 15.08829861 23985,6917.911,95.438,540.881,538.672,0.0
52617.0,STARLINK-3996,PAYLOAD,2022-10-15 17:41:42,15.08832205,0.0001733999999999,53.217,79.9629,50.8528,309.2618,-1.7692e-05,-5.700000000000001e-06,0.0,0 STARLINK-3996,1 52617U 22052V   22288.73730053 -.00000570  00000-0 -17692-4 0  9995,2 52617  53.2170  79.9629 0001734  50.8528 309.2618 15.08832205 23644,6917.904,95.438,540.969,538.57,0.0
52617.0,STARLINK-3996,PAYLOAD,2022-10-16 11:10:57,15.088281,0.0001692,53.217,76.6913,51.8409,308.2736,-8.5415e-05,-1.647e-05,0.0,0 STARLINK-3996,1 52617U 22052V   22289.46594740 -.00001647  00000-0 -85415-4 0  9991,2 52617  53.2170  76.6913 0001692  51.8409 308.2736 15.08828100 23757,6917.917,95.438,540.952,538.611,0.0
52617.0,STARLINK-3996,PAYLOAD,2022-10-16 17:32:30,15.08832619,0.000166,53.2171,75.5021,52.1334,307.9809,-3.2311e-05,-8.02e-06,0.0,0 STARLINK-3996,1 52617U 22052V   22289.73090460 -.00000802  00000-0 -32311-4 0  9990,2 52617  53.2171  75.5021 0001660  52.1334 307.9809 15.08832619 24176,6917.903,95.438,540.9159999999998,538.62,0.0
52617.0,STARLINK-3996,PAYLOAD,2022-10-16 19:07:53,15.08834258,0.0001665,53.2171,75.2047,51.5132,308.6009,-2.5836e-05,-6.99e-06,0.0,0 STARLINK-3996,1 52617U 22052V   22289.79714375 -.00000699  00000-0 -25836-4 0  9992,2 52617  53.2171  75.2047 0001665  51.5132 308.6009 15.08834258 23805,6917.898,95.438,540.915,538.611,0.0
52617.0,STARLINK-3996,PAYLOAD,2022-10-17 03:04:48,15.08841951,0.0001646,53.2173,73.7176,54.1153,305.9992,-1.9481e-06,-3.19e-06,0.0,0 STARLINK-3996,1 52617U 22052V   22290.12833897 -.00000319  00000-0 -19481-5 0  9991,2 52617  53.2173  73.7176 0001646  54.1153 305.9992 15.08841951 24231,6917.874,95.437,540.878,538.601,0.0
52617.0,STARLINK-3996,PAYLOAD,2022-10-17 12:37:07,15.08838123,0.000171,53.2173,71.9335,53.4039,306.711,0.00022884,3.356e-05,0.0,0 STARLINK-3996,1 52617U 22052V   22290.52577666  .00003356  00000-0  22884-3 0  9995,2 52617  53.2173  71.9335 0001710  53.4039 306.7110 15.08838123 23917,6917.886,95.438,540.934,538.568,0.0
52617.0,STARLINK-3996,PAYLOAD,2022-10-17 15:47:53,15.08840497,0.0001681,53.2174,71.3388,57.9545,302.161,0.00026637,3.954e-05,0.0,0 STARLINK-3996,1 52617U 22052V   22290.65825564  .00003954  00000-0  26637-3 0  9996,2 52617  53.2174  71.3388 0001681  57.9545 302.1610 15.08840497 23932,6917.879,95.438,540.9069999999998,538.581,0.0
52617.0,STARLINK-3996,PAYLOAD,2022-10-18 09:17:08,15.088306,0.0001686,53.2174,68.0684,53.0505,307.0641,0.00015193,2.13e-05,0.0,0 STARLINK-3996,1 52617U 22052V   22291.38690677  .00002130  00000-0  15193-3 0  9992,2 52617  53.2174  68.0684 0001686  53.0505 307.0641 15.08830600 24048,6917.909000000002,95.438,540.94,538.6080000000002,0.0
52617.0,STARLINK-3996,PAYLOAD,2022-10-18 15:38:41,15.08831146,0.0001691,53.2174,66.8787,53.4696,306.6452,0.0001501,2.101e-05,0.0,0 STARLINK-3996,1 52617U 22052V   22291.65186891  .00002101  00000-0  15010-3 0  9996,2 52617  53.2174  66.8787 0001691  53.4696 306.6452 15.08831146 24084,6917.906999999997,95.438,540.942,538.6030000000002,0.0
52617.0,STARLINK-3996,PAYLOAD,2022-10-19 09:07:55,15.08847365,0.0001735,53.217,63.6085,50.4893,309.6252,7.1355e-05,8.48e-06,0.0,0 STARLINK-3996,1 52617U 22052V   22292.38049967  .00000848  00000-0  71355-4 0  9990,2 52617  53.2170  63.6085 0001735  50.4893 309.6252 15.08847365 24576,6917.858,95.437,540.923,538.523,0.0
52617.0,STARLINK-3996,PAYLOAD,2022-10-19 12:18:41,15.08842013,0.0001756,53.2171,63.0134,49.6234,310.4911,3.3583e-05,2.46e-06,0.0,0 STARLINK-3996,1 52617U 22052V   22292.51298396  .00000246  00000-0  33583-4 0  9990,2 52617  53.2171  63.0134 0001756  49.6234 310.4911 15.08842013 24216,6917.874,95.437,540.9540000000002,538.524,0.0
52617.0,STARLINK-3996,PAYLOAD,2022-10-19 15:29:27,15.08842714,0.0001749,53.2163,62.4185,49.1567,310.9576,3.2542e-05,2.3e-06,0.0,0 STARLINK-3996,1 52617U 22052V   22292.64546137  .00000230  00000-0  32542-4 0  9990,2 52617  53.2163  62.4185 0001749  49.1567 310.9576 15.08842714 24234,6917.871999999999,95.437,540.947,538.5269999999998,0.0
52617.0,STARLINK-3996,PAYLOAD,2022-10-20 12:09:28,15.08836346,0.0001658,53.2178,58.5527,47.9196,312.1937,0.00011152,1.487e-05,0.0,0 STARLINK-3996,1 52617U 22052V   22293.50658407  .00001487  00000-0  11152-3 0  9998,2 52617  53.2178  58.5527 0001658  47.9196 312.1937 15.08836346 24744,6917.892,95.438,540.904,538.61,0.0
52617.0,STARLINK-3996,PAYLOAD,2022-10-21 00:52:33,15.08844007,0.0001793,53.2176,56.1744,47.144,312.9702,9.1219e-05,1.164e-05,0.0,0 STARLINK-3996,1 52617U 22052V   22294.03649923  .00001164  00000-0  91219-4 0  9995,2 52617  53.2176  56.1744 0001793  47.1440 312.9702 15.08844007 24821,6917.868,95.437,540.974,538.493,0.0
52617.0,STARLINK-3996,PAYLOAD,2022-10-21 08:49:29,15.08834716,0.0001785,53.2174,54.6877,48.0667,312.0477,4.7062e-05,4.61e-06,0.0,0 STARLINK-3996,1 52617U 22052V   22294.36770568  .00000461  00000-0  47062-4 0  9997,2 52617  53.2174  54.6877 0001785  48.0667 312.0477 15.08834716 24872,6917.897,95.438,540.996,538.5269999999998,0.0
52617.0,STARLINK-3996,PAYLOAD,2022-10-21 10:24:52,15.08835031,0.0001786,53.2175,54.3902,48.4322,311.6823,4.4225e-05,4.16e-06,0.0,0 STARLINK-3996,1 52617U 22052V   22294.43394537  .00000416  00000-0  44225-4 0  9991,2 52617  53.2175  54.3902 0001786  48.4322 311.6823 15.08835031 24503,6917.896,95.438,540.996,538.525,0.0
52617.0,STARLINK-3996,PAYLOAD,2022-10-21 18:21:48,15.088421300000002,0.0001810999999999,53.2177,52.903,47.4726,312.6419,9.8003e-05,1.272e-05,0.0,0 STARLINK-3996,1 52617U 22052V   22294.76513972  .00001272  00000-0  98003-4 0  9997,2 52617  53.2177  52.9030 0001811  47.4726 312.6419 15.08842130 24934,6917.874,95.437,540.992,538.486,0.0
